0 COSMOS 1818 COOLANT
1 36946U 87011AA  13284.54749512  .00000337  00000-0  16212-3 0   999
2 36946 065.0138 258.5874 0021902 264.9672 094.9047 14.32020693214406
0 COSMOS 1818 COOLANT
1 36946U 87011AA  13287.27110568  .00000366  00000-0  17273-3 0  1008
2 36946 065.0137 250.9511 0022086 264.9854 094.8843 14.32023921214797
0 COSMOS 1818 COOLANT
1 36946U 87011AA  13290.48356313  .00000436  00000-0  19877-3 0  1016
2 36946 065.0139 241.9492 0021207 262.7761 097.1242 14.32028872215255
0 COSMOS 1818 COOLANT
1 36946U 87011AA  13293.20715348  .00000497  00000-0  22166-3 0  1029
2 36946 065.0131 234.3178 0020955 265.1723 094.7100 14.32033469215645
0 COSMOS 1818 COOLANT
1 36946U 87011AA  13295.44189019  .00000533  00000-0  23495-3 0  1035
2 36946 065.0141 228.0543 0020835 262.5186 097.3718 14.32037083215968
